{"type": "FeatureCollection", "features": [ {"type": "Feature", "properties": {"norad_id": 31211, "name": "FENGYUN 1C DEB", "group": "fengyun-1c-debris", "lat": -64.55194308869794, "lon": 174.05662615271498, "alt_km": 855.2419668843595, "timestamp": "2025-12-02T15:49:07.470990+00:00", "meta": {"OBJECT_NAME": "FENGYUN 1C DEB", "OBJECT_ID": "1999-025BKR", "EPOCH": "2025-11-30T08:33:09.671616", "MEAN_MOTION": 14.19974867, "ECCENTRICITY": 0.00513406, "INCLINATION": 98.6741, "RA_OF_ASC_NODE": 10.511, "ARG_OF_PERICENTER": 124.5682, "MEAN_ANOMALY": 236.0355, "EPHEMERIS_TYPE": 0, "CLASSIFICATION_TYPE": "U", "NORAD_CAT_ID": 31211, "ELEMENT_SET_NO": 999, "REV_AT_EPOCH": 63117, "BSTAR": 0.0010326932, "MEAN_MOTION_DOT": 2.182e-05, "MEAN_MOTION_DDOT": 0}, "tle": {"line1": "1 31211U 99025BKR 25334.35636194  .00002182  00000+0  10327-2 0  9994", "line2": "2 31211  98.6741  10.5110 0051340 124.5682 236.0355 14.19974867631172"}}, "geometry": {"type": "Point", "coordinates": [174.05662615271498, -64.55194308869794]}}, {"type": "Feature", "properties": {"norad_id": 31212, "name": "FENGYUN 1C DEB", "group": "fengyun-1c-debris", "lat": 63.60924839011421, "lon": -153.05284304213015, "alt_km": 837.4289114809553, "timestamp": "2025-12-02T15:49:07.471001+00:00", "meta": {"OBJECT_NAME": "FENGYUN 1C DEB", "OBJECT_ID": "1999-025BKS", "EPOCH": "2025-11-25T01:25:48.692640", "MEAN_MOTION": 14.12981607, "ECCENTRICITY": 0.00745379, "INCLINATION": 99.223, "RA_OF_ASC_NODE": 0.0078, "ARG_OF_PERICENTER": 220.8092, "MEAN_ANOMALY": 138.7482, "EPHEMERIS_TYPE": 0, "CLASSIFICATION_TYPE": "U", "NORAD_CAT_ID": 31212, "ELEMENT_SET_NO": 999, "REV_AT_EPOCH": 95409, "BSTAR": 0.0015990818, "MEAN_MOTION_DOT": 3.014e-05, "MEAN_MOTION_DDOT": 0}, "tle": {"line1": "1 31212U 99025BKS 25329.05959135  .00003014  00000+0  15991-2 0  9996", "line2": "2 31212  99.2230   0.0078 0074537 220.8092 138.7482 14.12981607954099"}}, "geometry": {"type": "Point", "coordinates": [-153.05284304213015, 63.60924839011421]}}, {"type": "Feature", "properties": {"norad_id": 31215, "name": "FENGYUN 1C DEB", "group": "fengyun-1c-debris", "lat": 67.00632242044206, "lon": 158.11416156477833, "alt_km": 760.0398844496995, "timestamp": "2025-12-02T15:49:07.471011+00:00", "meta": {"OBJECT_NAME": "FENGYUN 1C DEB", "OBJECT_ID": "1999-025BKV", "EPOCH": "2025-12-01T19:24:11.403648", "MEAN_MOTION": 14.33696459, "ECCENTRICITY": 0.00702274, "INCLINATION": 99.0744, "RA_OF_ASC_NODE": 179.3473, "ARG_OF_PERICENTER": 355.6358, "MEAN_ANOMALY": 4.4204, "EPHEMERIS_TYPE": 0, "CLASSIFICATION_TYPE": "U", "NORAD_CAT_ID": 31215, "ELEMENT_SET_NO": 999, "REV_AT_EPOCH": 96369, "BSTAR": 0.00097709666, "MEAN_MOTION_DOT": 2.74e-05, "MEAN_MOTION_DDOT": 0}, "tle": {"line1": "1 31215U 99025BKV 25335.80846532  .00002740  00000+0  97710-3 0  9990", "line2": "2 31215  99.0744 179.3473 0070227 355.6358   4.4204 14.33696459963691"}}, "geometry": {"type": "Point", "coordinates": [158.11416156477833, 67.00632242044206]}}, {"type": "Feature", "properties": {"norad_id": 31217, "name": "FENGYUN 1C DEB", "group": "fengyun-1c-debris", "lat": 81.33873266287398, "lon": -101.7953506530252, "alt_km": 837.455228204697, "timestamp": "2025-12-02T15:49:07.471021+00:00", "meta": {"OBJECT_NAME": "FENGYUN 1C DEB", "OBJECT_ID": "1999-025BKX", "EPOCH": "2025-12-02T06:55:17.641632", "MEAN_MOTION": 14.17498614, "ECCENTRICITY": 0.00992138, "INCLINATION": 98.641, "RA_OF_ASC_NODE": 344.462, "ARG_OF_PERICENTER": 190.0382, "MEAN_ANOMALY": 169.8814, "EPHEMERIS_TYPE": 0, "CLASSIFICATION_TYPE": "U", "NORAD_CAT_ID": 31217, "ELEMENT_SET_NO": 999, "REV_AT_EPOCH": 96200, "BSTAR": 0.00072359258, "MEAN_MOTION_DOT": 1.498e-05, "MEAN_MOTION_DDOT": 0}, "tle": {"line1": "1 31217U 99025BKX 25336.28839863  .00001498  00000+0  72359-3 0  9995", "line2": "2 31217  98.6410 344.4620 0099213 190.0382 169.8814 14.17498614962003"}}, "geometry": {"type": "Point", "coordinates": [-101.7953506530252, 81.33873266287398]}}, {"type": "Feature", "properties": {"norad_id": 31218, "name": "FENGYUN 1C DEB", "group": "fengyun-1c-debris", "lat": 8.379621026314037, "lon": -92.72012350766093, "alt_km": 659.191410056821, "timestamp": "2025-12-02T15:49:07.471032+00:00", "meta": {"OBJECT_NAME": "FENGYUN 1C DEB", "OBJECT_ID": "1999-025BKY", "EPOCH": "2025-12-01T06:24:18.111456", "MEAN_MOTION": 14.71471292, "ECCENTRICITY": 0.00115881, "INCLINATION": 98.8418, "RA_OF_ASC_NODE": 84.4549, "ARG_OF_PERICENTER": 76.3108, "MEAN_ANOMALY": 283.9385, "EPHEMERIS_TYPE": 0, "CLASSIFICATION_TYPE": "U", "NORAD_CAT_ID": 31218, "ELEMENT_SET_NO": 999, "REV_AT_EPOCH": 96914, "BSTAR": 0.0061013731, "MEAN_MOTION_DOT": 0.00038025, "MEAN_MOTION_DDOT": 0}, "tle": {"line1": "1 31218U 99025BKY 25335.26687629  .00038025  00000+0  61014-2 0  9995", "line2": "2 31218  98.8418  84.4549 0011588  76.3108 283.9385 14.71471292969142"}}, "geometry": {"type": "Point", "coordinates": [-92.72012350766093, 8.379621026314037]}}, {"type": "Feature", "properties": {"norad_id": 31219, "name": "FENGYUN 1C DEB", "group": "fengyun-1c-debris", "lat": -14.862549814400152, "lon": -11.374203569310298, "alt_km": 894.5020115235702, "timestamp": "2025-12-02T15:49:07.471043+00:00", "meta": {"OBJECT_NAME": "FENGYUN 1C DEB", "OBJECT_ID": "1999-025BKZ", "EPOCH": "2025-11-28T23:33:42.264288", "MEAN_MOTION": 14.13677132, "ECCENTRICITY": 0.00786886, "INCLINATION": 99.2839, "RA_OF_ASC_NODE": 342.322, "ARG_OF_PERICENTER": 215.6749, "MEAN_ANOMALY": 143.9149, "EPHEMERIS_TYPE": 0, "CLASSIFICATION_TYPE": "U", "NORAD_CAT_ID": 31219, "ELEMENT_SET_NO": 999, "REV_AT_EPOCH": 95375, "BSTAR": 0.0014850879, "MEAN_MOTION_DOT": 2.841e-05, "MEAN_MOTION_DDOT": 0}, "tle": {"line1": "1 31219U 99025BKZ 25332.98173917  .00002841  00000+0  14851-2 0  9996", "line2": "2 31219  99.2839 342.3220 0078688 215.6749 143.9149 14.13677132953750"}}, "geometry": {"type": "Point", "coordinates": [-11.374203569310298, -14.862549814400152]}}, {"type": "Feature", "properties": {"norad_id": 31222, "name": "FENGYUN 1C DEB", "group": "fengyun-1c-debris", "lat": 8.882776562533161, "lon": 44.24444933804755, "alt_km": 581.1385015002861, "timestamp": "2025-12-02T15:49:07.471053+00:00", "meta": {"OBJECT_NAME": "FENGYUN 1C DEB", "OBJECT_ID": "1999-025BLC", "EPOCH": "2025-12-01T10:54:44.707104", "MEAN_MOTION": 14.97461269, "ECCENTRICITY": 0.017058, "INCLINATION": 98.6137, "RA_OF_ASC_NODE": 44.2744, "ARG_OF_PERICENTER": 106.2927, "MEAN_ANOMALY": 255.7129, "EPHEMERIS_TYPE": 0, "CLASSIFICATION_TYPE": "U", "NORAD_CAT_ID": 31222, "ELEMENT_SET_NO": 999, "REV_AT_EPOCH": 99815, "BSTAR": 0.00091766453, "MEAN_MOTION_DOT": 0.00014367, "MEAN_MOTION_DDOT": 0}, "tle": {"line1": "1 31222U 99025BLC 25335.45468411  .00014367  00000+0  91766-3 0  9998", "line2": "2 31222  98.6137  44.2744 0170580 106.2927 255.7129 14.97461269998151"}}, "geometry": {"type": "Point", "coordinates": [44.24444933804755, 8.882776562533161]}}, {"type": "Feature", "properties": {"norad_id": 31223, "name": "FENGYUN 1C DEB", "group": "fengyun-1c-debris", "lat": 11.890846599405855, "lon": 45.40238315293306, "alt_km": 1002.8530592912348, "timestamp": "2025-12-02T15:49:07.471064+00:00", "meta": {"OBJECT_NAME": "FENGYUN 1C DEB", "OBJECT_ID": "1999-025BLD", "EPOCH": "2025-12-01T04:09:32.370048", "MEAN_MOTION": 13.77153294, "ECCENTRICITY": 0.0240708, "INCLINATION": 99.0007, "RA_OF_ASC_NODE": 222.0818, "ARG_OF_PERICENTER": 71.435, "MEAN_ANOMALY": 291.2785, "EPHEMERIS_TYPE": 0, "CLASSIFICATION_TYPE": "U", "NORAD_CAT_ID": 31223, "ELEMENT_SET_NO": 999, "REV_AT_EPOCH": 92569, "BSTAR": 0.0027098, "MEAN_MOTION_DOT": 3.282e-05, "MEAN_MOTION_DDOT": 0}, "tle": {"line1": "1 31223U 99025BLD 25335.17329132  .00003282  00000+0  27098-2 0  9994", "line2": "2 31223  99.0007 222.0818 0240708  71.4350 291.2785 13.77153294925699"}}, "geometry": {"type": "Point", "coordinates": [45.40238315293306, 11.890846599405855]}}, {"type": "Feature", "properties": {"norad_id": 31224, "name": "FENGYUN 1C DEB", "group": "fengyun-1c-debris", "lat": -54.66348239995936, "lon": -19.072943162524904, "alt_km": 842.8228876498288, "timestamp": "2025-12-02T15:49:07.471074+00:00", "meta": {"OBJECT_NAME": "FENGYUN 1C DEB", "OBJECT_ID": "1999-025BLE", "EPOCH": "2025-11-29T05:49:36.943680", "MEAN_MOTION": 14.28860615, "ECCENTRICITY": 0.0155936, "INCLINATION": 98.3664, "RA_OF_ASC_NODE": 325.6684, "ARG_OF_PERICENTER": 202.6672, "MEAN_ANOMALY": 177.0138, "EPHEMERIS_TYPE": 0, "CLASSIFICATION_TYPE": "U", "NORAD_CAT_ID": 31224, "ELEMENT_SET_NO": 999, "REV_AT_EPOCH": 69058, "BSTAR": 0.00033580418, "MEAN_MOTION_DOT": 9.21e-06, "MEAN_MOTION_DDOT": 0}, "tle": {"line1": "1 31224U 99025BLE 25333.24278870  .00000921  00000+0  33580-3 0  9994", "line2": "2 31224  98.3664 325.6684 0155936 202.6672 177.0138 14.28860615690584"}}, "geometry": {"type": "Point", "coordinates": [-19.072943162524904, -54.66348239995936]}}, {"type": "Feature", "properties": {"norad_id": 31225, "name": "FENGYUN 1C DEB", "group": "fengyun-1c-debris", "lat": 47.848599639153456, "lon": 39.68934030911442, "alt_km": 772.1955517143851, "timestamp": "2025-12-02T15:49:07.471084+00:00", "meta": {"OBJECT_NAME": "FENGYUN 1C DEB", "OBJECT_ID": "1999-025BLF", "EPOCH": "2025-12-01T21:15:36.608832", "MEAN_MOTION": 14.17769294, "ECCENTRICITY": 0.00884454, "INCLINATION": 98.9909, "RA_OF_ASC_NODE": 48.9798, "ARG_OF_PERICENTER": 22.7809, "MEAN_ANOMALY": 40.8874, "EPHEMERIS_TYPE": 0, "CLASSIFICATION_TYPE": "U", "NORAD_CAT_ID": 31225, "ELEMENT_SET_NO": 999, "REV_AT_EPOCH": 95668, "BSTAR": 0.0014192248, "MEAN_MOTION_DOT": 2.963e-05, "MEAN_MOTION_DDOT": 0}, "tle": {"line1": "1 31225U 99025BLF 25335.88584038  .00002963  00000+0  14192-2 0  9998", "line2": "2 31225  98.9909  48.9798 0088445  22.7809  40.8874 14.17769294956686"}}, "geometry": {"type": "Point", "coordinates": [39.68934030911442, 47.848599639153456]}}]}